{
  "type": "FeatureCollection",
  "features": [
    {
      "type": "Feature",
      "properties": {
        "norad_id": 22490,
        "name": "SCD 1",
        "group": "resource",
        "lat": -23.135229997784975,
        "lon": 78.51206747302406,
        "alt_km": 760.3546983420983,
        "timestamp": "2025-12-26T19:22:38.550439+00:00",
        "meta_object_name": "SCD 1",
        "meta_object_id": "1993-009B",
        "meta_epoch": "2025-12-26T15:05:04.547904",
        "meta_mean_motion": 14.46008245,
        "meta_eccentricity": 0.00421788,
        "meta_inclination": 24.9674,
        "meta_ra_of_asc_node": 192.9471,
        "meta_arg_of_pericenter": 111.7084,
        "meta_mean_anomaly": 283.5703,
        "meta_ephemeris_type": 0,
        "meta_classification_type": "U",
        "meta_norad_cat_id": 22490,
        "meta_element_set_no": 999,
        "meta_rev_at_epoch": 73611,
        "meta_bstar": 9.5317896e-05,
        "meta_mean_motion_dot": 5.34e-06,
        "meta_mean_motion_ddot": 0,
        "tle_line1": "1 22490U 93009B   25360.62852486  .00000534  00000+0  95318-4 0  9996",
        "tle_line2": "2 22490  24.9674 192.9471 0042178 111.7084 283.5703 14.46008245736118"
      },
      "geometry": {
        "type": "Point",
        "coordinates": [
          78.51206747302406,
          -23.135229997784975
        ]
      }
    },
    {
      "type": "Feature",
      "properties": {
        "norad_id": 25397,
        "name": "TECHSAT 1B (GO-32)",
        "group": "resource",
        "lat": -79.32140439386981,
        "lon": 107.22004437711499,
        "alt_km": 818.624614741926,
        "timestamp": "2025-12-26T19:22:38.550464+00:00",
        "meta_object_name": "TECHSAT 1B (GO-32)",
        "meta_object_id": "1998-043D",
        "meta_epoch": "2025-12-26T11:23:49.320960",
        "meta_mean_motion": 14.24380794,
        "meta_eccentricity": 0.00016195,
        "meta_inclination": 98.9934,
        "meta_ra_of_asc_node": 344.0048,
        "meta_arg_of_pericenter": 34.4402,
        "meta_mean_anomaly": 325.6881,
        "meta_ephemeris_type": 0,
        "meta_classification_type": "U",
        "meta_norad_cat_id": 25397,
        "meta_element_set_no": 999,
        "meta_rev_at_epoch": 42674,
        "meta_bstar": 6.28068e-05,
        "meta_mean_motion_dot": 9.9e-07,
        "meta_mean_motion_ddot": 0,
        "tle_line1": "1 25397U 98043D   25360.47487640  .00000099  00000+0  62807-4 0  9990",
        "tle_line2": "2 25397  98.9934 344.0048 0001619  34.4402 325.6881 14.24380794426745"
      },
      "geometry": {
        "type": "Point",
        "coordinates": [
          107.22004437711499,
          -79.32140439386981
        ]
      }
    },
    {
      "type": "Feature",
      "properties": {
        "norad_id": 25504,
        "name": "SCD 2",
        "group": "resource",
        "lat": -23.540133411069473,
        "lon": -55.61133181521007,
        "alt_km": 751.5922101960514,
        "timestamp": "2025-12-26T19:22:38.550479+00:00",
        "meta_object_name": "SCD 2",
        "meta_object_id": "1998-060A",
        "meta_epoch": "2025-12-26T13:56:13.358688",
        "meta_mean_motion": 14.45430804,
        "meta_eccentricity": 0.00170707,
        "meta_inclination": 24.9957,
        "meta_ra_of_asc_node": 56.5516,
        "meta_arg_of_pericenter": 99.0432,
        "meta_mean_anomaly": 49.9342,
        "meta_ephemeris_type": 0,
        "meta_classification_type": "U",
        "meta_norad_cat_id": 25504,
        "meta_element_set_no": 999,
        "meta_rev_at_epoch": 43532,
        "meta_bstar": 8.1485778e-05,
        "meta_mean_motion_dot": 4.74e-06,
        "meta_mean_motion_ddot": 0,
        "tle_line1": "1 25504U 98060A   25360.58071017  .00000474  00000+0  81486-4 0  9999",
        "tle_line2": "2 25504  24.9957  56.5516 0017070  99.0432  49.9342 14.45430804435325"
      },
      "geometry": {
        "type": "Point",
        "coordinates": [
          -55.61133181521007,
          -23.540133411069473
        ]
      }
    },
    {
      "type": "Feature",
      "properties": {
        "norad_id": 25757,
        "name": "DLR-TUBSAT",
        "group": "resource",
        "lat": 78.76386886622926,
        "lon": -144.1714713335523,
        "alt_km": 704.4569315937551,
        "timestamp": "2025-12-26T19:22:38.550491+00:00",
        "meta_object_name": "DLR-TUBSAT",
        "meta_object_id": "1999-029B",
        "meta_epoch": "2025-12-17T13:22:10.787520",
        "meta_mean_motion": 14.52359578,
        "meta_eccentricity": 0.00141996,
        "meta_inclination": 98.6566,
        "meta_ra_of_asc_node": 336.2196,
        "meta_arg_of_pericenter": 177.8976,
        "meta_mean_anomaly": 182.2281,
        "meta_ephemeris_type": 0,
        "meta_classification_type": "U",
        "meta_norad_cat_id": 25757,
        "meta_element_set_no": 999,
        "meta_rev_at_epoch": 40688,
        "meta_bstar": 3.7650132e-05,
        "meta_mean_motion_dot": 1.05e-06,
        "meta_mean_motion_ddot": 0,
        "tle_line1": "1 25757U 99029B   25351.55706930  .00000105  00000+0  37650-4 0  9996",
        "tle_line2": "2 25757  98.6566 336.2196 0014199 177.8976 182.2281 14.52359578406886"
      },
      "geometry": {
        "type": "Point",
        "coordinates": [
          -144.1714713335523,
          78.76386886622926
        ]
      }
    },
    {
      "type": "Feature",
      "properties": {
        "norad_id": 25994,
        "name": "TERRA",
        "group": "resource",
        "lat": -51.44004349176616,
        "lon": -138.1520096271393,
        "alt_km": 699.4754643348269,
        "timestamp": "2025-12-26T19:22:38.550503+00:00",
        "meta_object_name": "TERRA",
        "meta_object_id": "1999-068A",
        "meta_epoch": "2025-12-26T15:48:24.065568",
        "meta_mean_motion": 14.60917206,
        "meta_eccentricity": 0.00033816,
        "meta_inclination": 97.973,
        "meta_ra_of_asc_node": 51.831,
        "meta_arg_of_pericenter": 66.6426,
        "meta_mean_anomaly": 103.4112,
        "meta_ephemeris_type": 0,
        "meta_classification_type": "U",
        "meta_norad_cat_id": 25994,
        "meta_element_set_no": 999,
        "meta_rev_at_epoch": 38441,
        "meta_bstar": 0.00011291069,
        "meta_mean_motion_dot": 5.08e-06,
        "meta_mean_motion_ddot": 0,
        "tle_line1": "1 25994U 99068A   25360.65861187  .00000508  00000+0  11291-3 0  9998",
        "tle_line2": "2 25994  97.9730  51.8310 0003381  66.6426 103.4112 14.60917206384417"
      },
      "geometry": {
        "type": "Point",
        "coordinates": [
          -138.1520096271393,
          -51.44004349176616
        ]
      }
    },
    {
      "type": "Feature",
      "properties": {
        "norad_id": 27004,
        "name": "MAROC-TUBSAT",
        "group": "resource",
        "lat": -41.29813004395444,
        "lon": 178.22410424289072,
        "alt_km": 1006.3634271066067,
        "timestamp": "2025-12-26T19:22:38.550514+00:00",
        "meta_object_name": "MAROC-TUBSAT",
        "meta_object_id": "2001-056D",
        "meta_epoch": "2025-12-26T10:56:47.893632",
        "meta_mean_motion": 13.70253538,
        "meta_eccentricity": 0.00193118,
        "meta_inclination": 99.7917,
        "meta_ra_of_asc_node": 169.1415,
        "meta_arg_of_pericenter": 223.7924,
        "meta_mean_anomaly": 162.0928,
        "meta_ephemeris_type": 0,
        "meta_classification_type": "U",
        "meta_norad_cat_id": 27004,
        "meta_element_set_no": 999,
        "meta_rev_at_epoch": 20253,
        "meta_bstar": 2.8395103e-05,
        "meta_mean_motion_dot": -2.2e-07,
        "meta_mean_motion_ddot": 0,
        "tle_line1": "1 27004U 01056D   25360.45610988 -.00000022  00000+0  28395-4 0  9997",
        "tle_line2": "2 27004  99.7917 169.1415 0019311 223.7924 162.0928 13.70253538202535"
      },
      "geometry": {
        "type": "Point",
        "coordinates": [
          178.22410424289072,
          -41.29813004395444
        ]
      }
    },
    {
      "type": "Feature",
      "properties": {
        "norad_id": 27424,
        "name": "AQUA",
        "group": "resource",
        "lat": 26.51323743788578,
        "lon": 146.14674001366504,
        "alt_km": 685.8200211686935,
        "timestamp": "2025-12-26T19:22:38.550525+00:00",
        "meta_object_name": "AQUA",
        "meta_object_id": "2002-022A",
        "meta_epoch": "2025-12-24T19:18:33.414624",
        "meta_mean_motion": 14.61757572,
        "meta_eccentricity": 0.00018094,
        "meta_inclination": 98.4055,
        "meta_ra_of_asc_node": 319.881,
        "meta_arg_of_pericenter": 102.1365,
        "meta_mean_anomaly": 317.5475,
        "meta_ephemeris_type": 0,
        "meta_classification_type": "U",
        "meta_norad_cat_id": 27424,
        "meta_element_set_no": 999,
        "meta_rev_at_epoch": 25779,
        "meta_bstar": 0.00019560508,
        "meta_mean_motion_dot": 9.26e-06,
        "meta_mean_motion_ddot": 0,
        "tle_line1": "1 27424U 02022A   25358.80455341  .00000926  00000+0  19561-3 0  9999",
        "tle_line2": "2 27424  98.4055 319.8810 0001809 102.1365 317.5475 14.61757572257795"
      },
      "geometry": {
        "type": "Point",
        "coordinates": [
          146.14674001366504,
          26.51323743788578
        ]
      }
    }
  ]
}